STARLINK-37933          
1 69532U 26133AA  26193.58335648 -.00007011  00000+0 -19019-3 0  9996
2 69532  53.1579 196.9410 0001267  98.1739 292.3695 15.35412476  5964
STARLINK-37890          
1 69533U 26133AB  26193.05066091  .00013744  00000+0  41710-3 0  9993
2 69533  53.1554 199.3557 0001825 106.3184 253.8019 15.34403888  5949
STARLINK-37407          
1 69534U 26133AC  26193.58335648 -.00006427  00000+0 -18418-3 0  9990
2 69534  53.1583 196.7231 0001210  83.1016  52.2530 15.33558004  6003
STARLINK-37888          
1 69535U 26133AD  26193.58335648 -.00004659  00000+0 -12684-3 0  9995
2 69535  53.1578 196.7707 0001494  63.2790  47.5075 15.34398359  5969
STARLINK-37889          
1 69536U 26133AE  26193.39839290  .00026508  00000+0  48260-3 0  9991
2 69536  53.1598 198.0041 0002148  73.8474 286.2771 15.49335058  5992
2026-134A               
1 69538U 26134A   26193.64628814  .00002600  00000+0  16617-3 0  9998
2 69538  97.7007 263.8507 0015866 179.2260 180.8996 15.09447903  4150
2026-134B               
1 69539U 26134B   26193.64343831  .00002553  00000+0  16253-3 0  9995
2 69539  97.6980 263.8460 0015962 181.5941 178.5240 15.09604408  4147
2026-134C               
1 69540U 26134C   26193.64286113  .00002547  00000+0  16205-3 0  9996
2 69540  97.6987 263.8487 0015429 182.7113 177.4034 15.09636582  4144
2026-134D               
1 69541U 26134D   26193.64181659  .00002546  00000+0  16166-3 0  9991
2 69541  97.7026 263.8636 0016464 182.6526 177.4618 15.09694259  4146
2026-134E               
1 69542U 26134E   26193.64141775  .00002524  00000+0  16023-3 0  9995
2 69542  97.7044 263.8705 0016183 183.3103 176.8022 15.09715801  4140
2026-134F               
1 69543U 26134F   26193.64058491  .00002504  00000+0  15884-3 0  9990
2 69543  97.6997 263.8555 0015491 184.9430 175.1648 15.09761095  4143
2026-134G               
1 69544U 26134G   26193.63905536  .00002666  00000+0  16844-3 0  9997
2 69544  97.7042 263.8725 0015963 185.7615 174.3433 15.09846301  4140
2026-134H               
1 69545U 26134H   26193.63785344  .00002497  00000+0  15775-3 0  9995
2 69545  97.7026 263.8692 0015797 187.0815 173.0193 15.09912915  4131
STARLINK-37880          
1 69546U 26135A   26193.58335648  .00035189  00000+0  64568-3 0  9997
2 69546  97.2848 221.8524 0000726 148.1842  18.3910 15.49194192  5380
STARLINK-37881          
1 69547U 26135B   26193.58335648 -.02406293  00000+0 -43530-1 0  9994
2 69547  97.2842 221.9469 0001357 105.0705 273.0839 15.53449809  5388
STARLINK-37265          
1 69548U 26135C   26193.58335648 -.02499929  00000+0 -32752-1 0  9997
2 69548  97.2840 222.0070 0001966  72.2609  89.2413 15.62137049  5386
STARLINK-37871          
1 69549U 26135D   26193.58335648 -.00861316  00000+0 -15398-1 0  9996
2 69549  97.2846 221.9365 0001403  77.4490 276.3368 15.52557625  5382
STARLINK-37865          
1 69550U 26135E   26193.58335648 -.00846772  00000+0 -15059-1 0  9991
2 69550  97.2852 221.9480 0001238  77.0142 304.3611 15.52660682  5386
STARLINK-37862          
1 69551U 26135F   26193.58335648 -.01984085  00000+0 -26161-1 0  9999
2 69551  97.2847 221.9881 0001812  64.1629  61.1091 15.61721670  5386
STARLINK-37861          
1 69552U 26135G   26193.58335648 -.02381616  00000+0 -41160-1 0  9998
2 69552  97.2845 221.9721 0001232  77.0038   0.0190 15.54655640  5388
STARLINK-37859          
1 69553U 26135H   26193.58335648 -.02465085  00000+0 -39370-1 0  9992
2 69553  97.2845 221.9792 0001926  49.2098  54.3967 15.56908123  5398
STARLINK-37860          
1 69554U 26135J   26193.58335648 -.02494996  00000+0 -35472-1 0  9995
2 69554  97.2846 222.0143 0002012  85.3659  90.9304 15.60019599  5399
STARLINK-37858          
1 69555U 26135K   26193.58335648 -.02499499  00000+0 -36935-1 0  9994
2 69555  97.2844 222.0024 0002079  68.1061  83.7300 15.59016915  5398
STARLINK-37927          
1 69556U 26135L   26193.58335648 -.02731599  00000+0 -50508-1 0  9997
2 69556  97.2847 221.9698 0001924  66.4858   1.3585 15.52699811  5396
STARLINK-37929          
1 69557U 26135M   26193.58335648  .00038543  00000+0  70728-3 0  9991
2 69557  97.2846 221.9232 0001653  96.5044 238.6261 15.49172611  5396
STARLINK-37954          
1 69558U 26135N   26193.58335648  .00035899  00000+0  65902-3 0  9991
2 69558  97.2844 221.9283 0000880  87.3677 254.5880 15.49176068  5396
STARLINK-37958          
1 69559U 26135P   26190.35553351  .00052572  00000+0  27487-3 0  9990
2 69559  97.2842 218.6737 0001420 185.9739 174.1513 15.80710505  3761
STARLINK-37950          
1 69560U 26135Q   26193.58335648 -.02390032  00000+0 -35414-1 0  9994
2 69560  97.2845 222.0127 0002141  99.5647  78.9902 15.58770470  5393
STARLINK-37952          
1 69561U 26135R   26193.58335648 -.02898279  00000+0 -54379-1 0  9992
2 69561  97.2842 221.9824 0002173  81.7903  13.9346 15.52534325  5398
STARLINK-37935          
1 69562U 26135S   26193.58335648  .00032302  00000+0  59331-3 0  9991
2 69562  97.2844 221.9316 0001722  91.2652 260.3087 15.49180954  5394
