OBJECT_NAME,OBJECT_ID,EPOCH,MEAN_MOTION,ECCENTRICITY,INCLINATION,RA_OF_ASC_NODE,ARG_OF_PERICENTER,MEAN_ANOMALY,EPHEMERIS_TYPE,CLASSIFICATION_TYPE,NORAD_CAT_ID,ELEMENT_SET_NO,REV_AT_EPOCH,BSTAR,MEAN_MOTION_DOT,MEAN_MOTION_DDOT
STARLINK-37933,2026-133AA,2026-07-12T14:00:01.999872,15.35412476,.00012673,53.1579,196.9410,98.1739,292.3695,0,U,69532,999,596,-.19019364E-3,-.7011E-4,0
STARLINK-37890,2026-133AB,2026-07-12T01:12:57.102624,15.34403888,.00018256,53.1554,199.3557,106.3184,253.8019,0,U,69533,999,594,.41710297E-3,.13744E-3,0
STARLINK-37407,2026-133AC,2026-07-12T14:00:01.999872,15.33558004,.000121,53.1583,196.7231,83.1016,52.2530,0,U,69534,999,600,-.18418431E-3,-.6427E-4,0
STARLINK-37888,2026-133AD,2026-07-12T14:00:01.999872,15.34398359,.00014947,53.1578,196.7707,63.2790,47.5075,0,U,69535,999,596,-.12683998E-3,-.4659E-4,0
STARLINK-37889,2026-133AE,2026-07-12T09:33:41.146560,15.49335058,.00021486,53.1598,198.0041,73.8474,286.2771,0,U,69536,999,599,.48259645E-3,.26508E-3,0
2026-134A,2026-134A,2026-07-12T15:30:39.295296,15.09447903,.00158665,97.7007,263.8507,179.2260,180.8996,0,U,69538,999,415,.16617156E-3,.26E-4,0
2026-134B,2026-134B,2026-07-12T15:26:33.069984,15.09604408,.00159622,97.6980,263.8460,181.5941,178.5240,0,U,69539,999,414,.16253134E-3,.2553E-4,0
2026-134C,2026-134C,2026-07-12T15:25:43.201632,15.09636582,.0015429,97.6987,263.8487,182.7113,177.4034,0,U,69540,999,414,.16205361E-3,.2547E-4,0
2026-134D,2026-134D,2026-07-12T15:24:12.953376,15.09694259,.00164645,97.7026,263.8636,182.6526,177.4618,0,U,69541,999,414,.16166314E-3,.2546E-4,0
2026-134E,2026-134E,2026-07-12T15:23:38.493600,15.09715801,.00161833,97.7044,263.8705,183.3103,176.8022,0,U,69542,999,414,.16022633E-3,.2524E-4,0
2026-134F,2026-134F,2026-07-12T15:22:26.536224,15.09761095,.00154919,97.6997,263.8555,184.9430,175.1648,0,U,69543,999,414,.1588388E-3,.2504E-4,0
2026-134G,2026-134G,2026-07-12T15:20:14.383104,15.09846301,.00159631,97.7042,263.8725,185.7615,174.3433,0,U,69544,999,414,.16843511E-3,.2666E-4,0
2026-134H,2026-134H,2026-07-12T15:18:30.537216,15.09912915,.00157975,97.7026,263.8692,187.0815,173.0193,0,U,69545,999,413,.15775441E-3,.2497E-4,0
STARLINK-37880,2026-135A,2026-07-12T14:00:01.999872,15.49194192,.00007266,97.2848,221.8524,148.1842,18.3910,0,U,69546,999,538,.6456765E-3,.35189E-3,0
STARLINK-37881,2026-135B,2026-07-12T14:00:01.999872,15.53449809,.0001357,97.2842,221.9469,105.0705,273.0839,0,U,69547,999,538,-.43529521E-1,-.2406293E-1,0
STARLINK-37265,2026-135C,2026-07-12T14:00:01.999872,15.62137049,.00019666,97.2840,222.0070,72.2609,89.2413,0,U,69548,999,538,-.32751648E-1,-.2499929E-1,0
STARLINK-37871,2026-135D,2026-07-12T14:00:01.999872,15.52557625,.00014039,97.2846,221.9365,77.4490,276.3368,0,U,69549,999,538,-.15398427E-1,-.861316E-2,0
STARLINK-37865,2026-135E,2026-07-12T14:00:01.999872,15.52660682,.00012384,97.2852,221.9480,77.0142,304.3611,0,U,69550,999,538,-.15059238E-1,-.846772E-2,0
STARLINK-37862,2026-135F,2026-07-12T14:00:01.999872,15.61721670,.0001812,97.2847,221.9881,64.1629,61.1091,0,U,69551,999,538,-.26161315E-1,-.1984085E-1,0
STARLINK-37861,2026-135G,2026-07-12T14:00:01.999872,15.54655640,.0001232,97.2845,221.9721,77.0038,0.0190,0,U,69552,999,538,-.41159565E-1,-.2381616E-1,0
STARLINK-37859,2026-135H,2026-07-12T14:00:01.999872,15.56908123,.00019267,97.2845,221.9792,49.2098,54.3967,0,U,69553,999,539,-.39369945E-1,-.2465085E-1,0
STARLINK-37860,2026-135J,2026-07-12T14:00:01.999872,15.60019599,.0002012,97.2846,222.0143,85.3659,90.9304,0,U,69554,999,539,-.35471712E-1,-.2494996E-1,0
STARLINK-37858,2026-135K,2026-07-12T14:00:01.999872,15.59016915,.00020791,97.2844,222.0024,68.1061,83.7300,0,U,69555,999,539,-.36935179E-1,-.2499499E-1,0
STARLINK-37927,2026-135L,2026-07-12T14:00:01.999872,15.52699811,.00019246,97.2847,221.9698,66.4858,1.3585,0,U,69556,999,539,-.50508475E-1,-.2731599E-1,0
STARLINK-37929,2026-135M,2026-07-12T14:00:01.999872,15.49172611,.00016532,97.2846,221.9232,96.5044,238.6261,0,U,69557,999,539,.70727512E-3,.38543E-3,0
STARLINK-37954,2026-135N,2026-07-12T14:00:01.999872,15.49176068,.00008803,97.2844,221.9283,87.3677,254.5880,0,U,69558,999,539,.65901935E-3,.35899E-3,0
STARLINK-37958,2026-135P,2026-07-09T08:31:58.095264,15.80710505,.00014208,97.2842,218.6737,185.9739,174.1513,0,U,69559,999,376,.27486559E-3,.52572E-3,0
STARLINK-37950,2026-135Q,2026-07-12T14:00:01.999872,15.58770470,.00021415,97.2845,222.0127,99.5647,78.9902,0,U,69560,999,539,-.35414449E-1,-.2390032E-1,0
STARLINK-37952,2026-135R,2026-07-12T14:00:01.999872,15.52534325,.00021731,97.2842,221.9824,81.7903,13.9346,0,U,69561,999,539,-.54378947E-1,-.2898279E-1,0
STARLINK-37935,2026-135S,2026-07-12T14:00:01.999872,15.49180954,.00017226,97.2844,221.9316,91.2652,260.3087,0,U,69562,999,539,.59330695E-3,.32302E-3,0
